SENTINEL-6              
1 46984U 20086A   24106.06822035 -.00000039  00000+0  95363-4 0  9998
2 46984  66.0438 342.3702 0007786 271.2660  88.7463 12.80929853158864
